NORAD_CAT_ID,OBJECT_NAME,OBJECT_TYPE,EPOCH,MEAN_MOTION,ECCENTRICITY,INCLINATION,RA_OF_ASC_NODE,ARG_OF_PERICENTER,MEAN_ANOMALY,BSTAR,MEAN_MOTION_DOT,MEAN_MOTION_DDOT,TLE_LINE0,TLE_LINE1,TLE_LINE2,SEMIMAJOR_AXIS,PERIOD,APOGEE,PERIGEE,DECAYED
53404.0,STARLINK-4509,PAYLOAD,2024-06-16 21:50:29,15.08834661,0.0001536,53.2176,65.7371,83.5505,276.5662,1.1412e-05,-1.06e-06,0.0,0 STARLINK-4509,1 53404U 22097S   24168.91005866 -.00000106  00000-0  11412-4 0  9993,2 53404  53.2176  65.7371 0001536  83.5505 276.5662 15.08834661103428,6917.897,95.438,540.824,538.699,0.0
53404.0,STARLINK-4509,PAYLOAD,2024-06-17 21:41:16,15.08840924,0.0001543,53.2182,61.2755,93.1573,266.9596,0.00035337,5.341e-05,0.0,0 STARLINK-4509,1 53404U 22097S   24169.90365804  .00005341  00000-0  35337-3 0  9990,2 53404  53.2182  61.2755 0001543  93.1573 266.9596 15.08840924103082,6917.878,95.437,540.81,538.675,0.0
53404.0,STARLINK-4509,PAYLOAD,2024-06-17 23:16:39,15.08843553,0.0001554,53.2182,60.9776,96.3496,263.7673,0.00037497,5.685e-05,0.0,0 STARLINK-4509,1 53404U 22097S   24169.96989736  .00005685  00000-0  37497-3 0  9992,2 53404  53.2182  60.9776 0001554  96.3496 263.7673 15.08843553103589,6917.87,95.437,540.81,538.659,0.0
53404.0,STARLINK-4509,PAYLOAD,2024-06-18 02:27:25,15.08844934,0.0001531,53.2186,60.3827,96.5104,263.6062,0.00044797,6.85e-05,0.0,0 STARLINK-4509,1 53404U 22097S   24170.10237738  .00006850  00000-0  44797-3 0  9994,2 53404  53.2186  60.3827 0001531  96.5104 263.6062 15.08844934103605,6917.865,95.437,540.789,538.671,0.0
53404.0,STARLINK-4509,PAYLOAD,2024-06-18 21:32:02,15.088489,0.0001567,53.2188,56.8147,97.7584,262.3586,0.00035191,5.318e-05,0.0,0 STARLINK-4509,1 53404U 22097S   24170.89725531  .00005318  00000-0  35191-3 0  9999,2 53404  53.2188  56.8147 0001567  97.7584 262.3586 15.08848900103723,6917.853,95.437,540.802,538.634,0.0
53404.0,STARLINK-4509,PAYLOAD,2024-06-19 21:22:50,15.08839125,0.0001442,53.2178,52.3543,97.6303,262.4853,6.1562e-05,6.92e-06,0.0,0 STARLINK-4509,1 53404U 22097S   24171.89085702  .00000692  00000-0  61562-4 0  9991,2 53404  53.2178  52.3543 0001442  97.6303 262.4853 15.08839125103382,6917.883,95.438,540.746,538.751,0.0
53404.0,STARLINK-4509,PAYLOAD,2024-06-20 08:30:31,15.08842814,0.0001404,53.2181,50.2768,102.1188,257.9962,2.4287e-05,9.9e-07,0.0,0 STARLINK-4509,1 53404U 22097S   24172.35453439  .00000099  00000-0  24287-4 0  9993,2 53404  53.2181  50.2768 0001404 102.1188 257.9962 15.08842814103944,6917.872,95.437,540.708,538.766,0.0
53404.0,STARLINK-4509,PAYLOAD,2024-06-20 21:13:37,15.08833395,0.0001959,53.2198,47.9058,123.6138,236.5042,-5.4081e-05,-1.149e-05,0.0,0 STARLINK-4509,1 53404U 22097S   24172.88446151 -.00001149  00000-0 -54081-4 0  9998,2 53404  53.2198  47.9058 0001959 123.6138 236.5042 15.08833395103536,6917.901,95.438,541.121,538.41,0.0
53404.0,STARLINK-4509,PAYLOAD,2024-06-20 22:49:01,15.08830952,0.0001822,53.2207,47.6046,114.6617,245.4565,-1.4824e-05,-5.24e-06,0.0,0 STARLINK-4509,1 53404U 22097S   24172.95070766 -.00000524  00000-0 -14824-4 0  9998,2 53404  53.2207  47.6046 0001822 114.6617 245.4565 15.08830952103548,6917.908,95.438,541.033,538.513,0.0
53404.0,STARLINK-4509,PAYLOAD,2024-06-21 21:04:24,15.08837021,0.0001531,53.2189,43.4375,104.7233,255.3929,0.0001548,2.176e-05,0.0,0 STARLINK-4509,1 53404U 22097S   24173.87806332  .00002176  00000-0  15480-3 0  9997,2 53404  53.2189  43.4375 0001531 104.7233 255.3929 15.08837021103680,6917.889,95.438,540.814,538.695,0.0
53404.0,STARLINK-4509,PAYLOAD,2024-06-21 22:39:47,15.0883816,0.0001451,53.2186,43.1396,101.2177,258.8978,0.00016908,2.404e-05,0.0,0 STARLINK-4509,1 53404U 22097S   24173.94430315  .00002404  00000-0  16908-3 0  9999,2 53404  53.2186  43.1396 0001451 101.2177 258.8978 15.08838160104180,6917.886,95.438,540.755,538.747,0.0
53404.0,STARLINK-4509,PAYLOAD,2024-06-22 14:33:39,15.08840151,0.000144,53.2177,40.1661,99.7417,260.3738,0.00023572,3.466e-05,0.0,0 STARLINK-4509,1 53404U 22097S   24174.60670326  .00003466  00000-0  23572-3 0  9995,2 53404  53.2177  40.1661 0001440  99.7417 260.3738 15.08840151104284,6917.88,95.438,540.741,538.749,0.0
53404.0,STARLINK-4509,PAYLOAD,2024-06-22 22:30:34,15.08841446,0.0001253,53.2164,38.6765,87.8303,272.2832,0.00018935,2.727e-05,0.0,0 STARLINK-4509,1 53404U 22097S   24174.93790405  .00002727  00000-0  18935-3 0  9998,2 53404  53.2164  38.6765 0001253  87.8303 272.2832 15.08841446104332,6917.876,95.437,540.608,538.874,0.0
53404.0,STARLINK-4509,PAYLOAD,2024-06-23 22:21:21,15.08842106,0.0001332,53.2172,34.2154,91.7278,268.3866,7.8222e-05,9.57e-06,0.0,0 STARLINK-4509,1 53404U 22097S   24175.93150345  .00000957  00000-0  78222-4 0  9991,2 53404  53.2172  34.2154 0001332  91.7278 268.3866 15.08842106104481,6917.874,95.437,540.66,538.817,0.0
53404.0,STARLINK-4509,PAYLOAD,2024-06-23 23:56:45,15.08842597,0.0001326,53.2172,33.9179,92.3956,267.7188,8.2935e-05,1.032e-05,0.0,0 STARLINK-4509,1 53404U 22097S   24175.99774307  .00001032  00000-0  82935-4 0  9998,2 53404  53.2172  33.9179 0001326  92.3956 267.7188 15.08842597104009,6917.872,95.437,540.655,538.82,0.0
53404.0,STARLINK-4509,PAYLOAD,2024-06-24 20:36:46,15.08841526,0.0001314,53.2182,30.0513,95.0997,265.0146,4.5216e-05,4.32e-06,0.0,0 STARLINK-4509,1 53404U 22097S   24176.85886584  .00000432  00000-0  45216-4 0  9999,2 53404  53.2182  30.0513 0001314  95.0997 265.0146 15.08841526104626,6917.876,95.437,540.65,538.832,0.0
53404.0,STARLINK-4509,PAYLOAD,2024-06-25 20:27:32,15.0884423,0.0001374,53.2181,25.5883,82.9181,277.1967,0.00011419,1.53e-05,0.0,0 STARLINK-4509,1 53404U 22097S   24177.85246211  .00001530  00000-0  11419-3 0  9994,2 53404  53.2181  25.5883 0001374  82.9181 277.1967 15.08844230104776,6917.867,95.437,540.683,538.782,0.0
53404.0,STARLINK-4509,PAYLOAD,2024-06-27 18:33:44,15.08837158,0.0001417,53.2177,16.965,102.4284,257.6867,-4.6595e-06,-3.62e-06,0.0,0 STARLINK-4509,1 53404U 22097S   24179.77342707 -.00000362  00000-0 -46595-5 0  9993,2 53404  53.2177  16.9650 0001417 102.4284 257.6867 15.08837158104578,6917.889,95.438,540.734,538.774,0.0
53404.0,STARLINK-4509,PAYLOAD,2024-06-28 05:41:25,15.08847723,0.0001095,53.2176,14.8874,100.7408,259.3707,6.6499e-05,7.71e-06,0.0,0 STARLINK-4509,1 53404U 22097S   24180.23710198  .00000771  00000-0  66499-4 0  9995,2 53404  53.2176  14.8874 0001095 100.7408 259.3707 15.08847723104642,6917.857,95.437,540.479,538.964,0.0
53404.0,STARLINK-4509,PAYLOAD,2024-06-28 18:24:30,15.08835979,0.0001487,53.218,12.5121,116.7146,243.3999,0.00020011,2.898e-05,0.0,0 STARLINK-4509,1 53404U 22097S   24180.76702170  .00002898  00000-0  20011-3 0  9995,2 53404  53.2180  12.5121 0001487 116.7146 243.3999 15.08835979105218,6917.893,95.438,540.786,538.729,0.0
53404.0,STARLINK-4509,PAYLOAD,2024-06-29 11:53:44,15.08851288,0.0002602,53.2171,9.2418,87.7768,272.3523,0.00016396,2.323e-05,0.0,0 STARLINK-4509,1 53404U 22097S   24181.49565915  .00002323  00000-0  16396-3 0  9994,2 53404  53.2171   9.2418 0002602  87.7768 272.3523 15.08851288104830,6917.846,95.437,541.511,537.911,0.0
53404.0,STARLINK-4509,PAYLOAD,2024-06-29 19:50:42,15.08825884,9.85e-05,53.2175,7.7489,81.5834,278.527,-7.5776e-05,-1.493e-05,0.0,0 STARLINK-4509,1 53404U 22097S   24181.82688069 -.00001493  00000-0 -75776-4 0  9994,2 53404  53.2175   7.7489 0000985  81.5834 278.5270 15.08825884104888,6917.924,95.438,540.47,539.107,0.0
53404.0,STARLINK-4509,PAYLOAD,2024-06-29 21:26:05,15.08826096,0.0001169,53.2186,7.4519,91.5346,268.578,-6.1396e-05,-1.264e-05,0.0,0 STARLINK-4509,1 53404U 22097S   24181.89312129 -.00001264  00000-0 -61396-4 0  9991,2 53404  53.2186   7.4519 0001169  91.5346 268.5780 15.08826096105382,6917.923,95.438,540.597,538.979,0.0
53404.0,STARLINK-4509,PAYLOAD,2024-06-30 05:23:00,15.08834835,0.0001228,53.2185,5.9677,85.7991,274.3141,1.0044e-05,-1.28e-06,0.0,0 STARLINK-4509,1 53404U 22097S   24182.22431585 -.00000128  00000-0  10044-4 0  9998,2 53404  53.2185   5.9677 0001228  85.7991 274.3141 15.08834835104943,6917.896,95.438,540.611,538.912,0.0
53404.0,STARLINK-4509,PAYLOAD,2024-06-30 11:44:32,15.08835188,8.67e-05,53.2182,4.7779,82.4774,277.6317,-7.9085e-06,-4.14e-06,0.0,0 STARLINK-4509,1 53404U 22097S   24182.48927036 -.00000414  00000-0 -79085-5 0  9997,2 53404  53.2182   4.7779 0000867  82.4774 277.6317 15.08835188105473,6917.895,95.438,540.36,539.16,0.0
53404.0,STARLINK-4509,PAYLOAD,2024-06-30 19:41:28,15.088487,0.0001257,53.2173,3.2916,104.2961,255.8171,0.00026223,3.889e-05,0.0,0 STARLINK-4509,1 53404U 22097S   24182.82046762  .00003889  00000-0  26223-3 0  9994,2 53404  53.2173   3.2916 0001257 104.2961 255.8171 15.08848700105037,6917.854,95.437,540.588,538.849,0.0
53404.0,STARLINK-4509,PAYLOAD,2024-07-01 11:35:20,15.0885583,0.0002496,53.2164,0.318,77.7049,282.4223,0.00069681,0.00010824,0.0,0 STARLINK-4509,1 53404U 22097S   24183.48287379  .00010824  00000-0  69681-3 0  9990,2 53404  53.2164   0.3180 0002496  77.7049 282.4223 15.08855830105132,6917.832,95.437,541.424,537.97,0.0
53404.0,STARLINK-4509,PAYLOAD,2024-07-01 19:32:15,15.08840615,0.0001014,53.2163,358.8312,78.1233,281.9872,0.0014155,0.00022312,0.0,0 STARLINK-4509,1 53404U 22097S   24183.81407264  .00022312  00000-0  14155-2 0  9994,2 53404  53.2163 358.8312 0001014  78.1233 281.9872 15.08840615105188,6917.879,95.438,540.445,539.042,0.0
53404.0,STARLINK-4509,PAYLOAD,2024-07-01 21:07:39,15.08842857,0.0001046,53.2163,358.5337,79.444,280.667,0.0016162,0.00025529,0.0,0 STARLINK-4509,1 53404U 22097S   24183.88031264  .00025529  00000-0  16162-2 0  9997,2 53404  53.2163 358.5337 0001046  79.4440 280.6670 15.08842857105688,6917.872,95.437,540.46,539.013,0.0
53404.0,STARLINK-4509,PAYLOAD,2024-07-02 05:04:34,15.08850783,0.0001082,53.216,357.0467,78.4301,281.6813,0.0011068,0.00017376,0.0,0 STARLINK-4509,1 53404U 22097S   24184.21151135  .00017376  00000-0  11068-2 0  9996,2 53404  53.2160 357.0467 0001082  78.4301 281.6813 15.08850783105731,6917.847,95.437,540.461,538.964,0.0
